{
  "type": "FeatureCollection",
  "features": [
    {
      "type": "Feature",
      "properties": {
        "norad_id": 34680,
        "name": "COSMOS 2251 DEB",
        "group": "cosmos-2251-debris",
        "lat": 26.681089209162664,
        "lon": 142.17091619137267,
        "alt_km": 694.4436749927763,
        "timestamp": "2025-12-10T14:53:37.482813+00:00",
        "meta_object_name": "COSMOS 2251 DEB",
        "meta_object_id": "1993-036YA",
        "meta_epoch": "2025-12-09T21:22:51.073824",
        "meta_mean_motion": 14.60570538,
        "meta_eccentricity": 0.00068604,
        "meta_inclination": 74.043,
        "meta_ra_of_asc_node": 135.2964,
        "meta_arg_of_pericenter": 231.5202,
        "meta_mean_anomaly": 281.1318,
        "meta_ephemeris_type": 0,
        "meta_classification_type": "U",
        "meta_norad_cat_id": 34680,
        "meta_element_set_no": 999,
        "meta_rev_at_epoch": 88286,
        "meta_bstar": 0.0017598768,
        "meta_mean_motion_dot": 8.536e-05,
        "meta_mean_motion_ddot": 0,
        "tle_line1": "1 34680U 93036YA  25343.89086891  .00008536  00000+0  17599-2 0  9992",
        "tle_line2": "2 34680  74.0430 135.2964 0006860 231.5202 281.1318 14.60570538882861"
      },
      "geometry": {
        "type": "Point",
        "coordinates": [
          142.17091619137267,
          26.681089209162664
        ]
      }
    },
    {
      "type": "Feature",
      "properties": {
        "norad_id": 34681,
        "name": "COSMOS 2251 DEB",
        "group": "cosmos-2251-debris",
        "lat": 73.20005508422746,
        "lon": 5.752625359448312,
        "alt_km": 612.9965653854078,
        "timestamp": "2025-12-10T14:53:37.482822+00:00",
        "meta_object_name": "COSMOS 2251 DEB",
        "meta_object_id": "1993-036YB",
        "meta_epoch": "2025-12-10T07:05:54.559968",
        "meta_mean_motion": 14.8311954,
        "meta_eccentricity": 0.00256248,
        "meta_inclination": 74.0627,
        "meta_ra_of_asc_node": 295.2266,
        "meta_arg_of_pericenter": 352.3104,
        "meta_mean_anomaly": 158.58,
        "meta_ephemeris_type": 0,
        "meta_classification_type": "U",
        "meta_norad_cat_id": 34681,
        "meta_element_set_no": 999,
        "meta_rev_at_epoch": 89234,
        "meta_bstar": 0.0025092974,
        "meta_mean_motion_dot": 0.000206,
        "meta_mean_motion_ddot": 0,
        "tle_line1": "1 34681U 93036YB  25344.29577037  .00020600  00000+0  25093-2 0  9999",
        "tle_line2": "2 34681  74.0627 295.2266 0025624 352.3104 158.5800 14.83119540892348"
      },
      "geometry": {
        "type": "Point",
        "coordinates": [
          5.752625359448312,
          73.20005508422746
        ]
      }
    },
    {
      "type": "Feature",
      "properties": {
        "norad_id": 34682,
        "name": "COSMOS 2251 DEB",
        "group": "cosmos-2251-debris",
        "lat": 22.528218012498066,
        "lon": 93.84297248582826,
        "alt_km": 708.7339372754868,
        "timestamp": "2025-12-10T14:53:37.482831+00:00",
        "meta_object_name": "COSMOS 2251 DEB",
        "meta_object_id": "1993-036YC",
        "meta_epoch": "2025-12-08T13:28:57.741024",
        "meta_mean_motion": 14.58847249,
        "meta_eccentricity": 0.0018543,
        "meta_inclination": 74.04,
        "meta_ra_of_asc_node": 90.9444,
        "meta_arg_of_pericenter": 224.1225,
        "meta_mean_anomaly": 151.2779,
        "meta_ephemeris_type": 0,
        "meta_classification_type": "U",
        "meta_norad_cat_id": 34682,
        "meta_element_set_no": 999,
        "meta_rev_at_epoch": 88625,
        "meta_bstar": 0.0013547,
        "meta_mean_motion_dot": 6.331e-05,
        "meta_mean_motion_ddot": 0,
        "tle_line1": "1 34682U 93036YC  25342.56177941  .00006331  00000+0  13547-2 0  9994",
        "tle_line2": "2 34682  74.0400  90.9444 0018543 224.1225 151.2779 14.58847249886252"
      },
      "geometry": {
        "type": "Point",
        "coordinates": [
          93.84297248582826,
          22.528218012498066
        ]
      }
    },
    {
      "type": "Feature",
      "properties": {
        "norad_id": 34683,
        "name": "COSMOS 2251 DEB",
        "group": "cosmos-2251-debris",
        "lat": 44.34793375198643,
        "lon": -99.91556382149332,
        "alt_km": 672.0012353125967,
        "timestamp": "2025-12-10T14:53:37.482840+00:00",
        "meta_object_name": "COSMOS 2251 DEB",
        "meta_object_id": "1993-036YD",
        "meta_epoch": "2025-12-10T07:52:12.654336",
        "meta_mean_motion": 14.64430031,
        "meta_eccentricity": 0.00183982,
        "meta_inclination": 74.0288,
        "meta_ra_of_asc_node": 96.9038,
        "meta_arg_of_pericenter": 211.6698,
        "meta_mean_anomaly": 179.6221,
        "meta_ephemeris_type": 0,
        "meta_classification_type": "U",
        "meta_norad_cat_id": 34683,
        "meta_element_set_no": 999,
        "meta_rev_at_epoch": 88313,
        "meta_bstar": 0.0022290062,
        "meta_mean_motion_dot": 0.00011813,
        "meta_mean_motion_ddot": 0,
        "tle_line1": "1 34683U 93036YD  25344.32792424  .00011813  00000+0  22290-2 0  9996",
        "tle_line2": "2 34683  74.0288  96.9038 0018398 211.6698 179.6221 14.64430031883139"
      },
      "geometry": {
        "type": "Point",
        "coordinates": [
          -99.91556382149332,
          44.34793375198643
        ]
      }
    },
    {
      "type": "Feature",
      "properties": {
        "norad_id": 34685,
        "name": "COSMOS 2251 DEB",
        "group": "cosmos-2251-debris",
        "lat": -21.700089556325803,
        "lon": 146.26807397817183,
        "alt_km": 704.6969774083809,
        "timestamp": "2025-12-10T14:53:37.482849+00:00",
        "meta_object_name": "COSMOS 2251 DEB",
        "meta_object_id": "1993-036YF",
        "meta_epoch": "2025-12-09T21:34:32.189952",
        "meta_mean_motion": 14.57463566,
        "meta_eccentricity": 0.00143092,
        "meta_inclination": 74.0292,
        "meta_ra_of_asc_node": 154.1834,
        "meta_arg_of_pericenter": 258.2035,
        "meta_mean_anomaly": 254.5837,
        "meta_ephemeris_type": 0,
        "meta_classification_type": "U",
        "meta_norad_cat_id": 34685,
        "meta_element_set_no": 999,
        "meta_rev_at_epoch": 88490,
        "meta_bstar": 0.0014291347,
        "meta_mean_motion_dot": 6.476e-05,
        "meta_mean_motion_ddot": 0,
        "tle_line1": "1 34685U 93036YF  25343.89898368  .00006476  00000+0  14291-2 0  9994",
        "tle_line2": "2 34685  74.0292 154.1834 0014309 258.2035 254.5837 14.57463566884900"
      },
      "geometry": {
        "type": "Point",
        "coordinates": [
          146.26807397817183,
          -21.700089556325803
        ]
      }
    },
    {
      "type": "Feature",
      "properties": {
        "norad_id": 34689,
        "name": "COSMOS 2251 DEB",
        "group": "cosmos-2251-debris",
        "lat": -39.666257685968596,
        "lon": 60.760188715444905,
        "alt_km": 838.020113340197,
        "timestamp": "2025-12-10T14:53:37.482858+00:00",
        "meta_object_name": "COSMOS 2251 DEB",
        "meta_object_id": "1993-036YK",
        "meta_epoch": "2025-12-09T15:43:43.204224",
        "meta_mean_motion": 14.04380278,
        "meta_eccentricity": 0.022877,
        "meta_inclination": 74.0977,
        "meta_ra_of_asc_node": 228.7634,
        "meta_arg_of_pericenter": 298.3373,
        "meta_mean_anomaly": 87.6678,
        "meta_ephemeris_type": 0,
        "meta_classification_type": "U",
        "meta_norad_cat_id": 34689,
        "meta_element_set_no": 999,
        "meta_rev_at_epoch": 84298,
        "meta_bstar": 0.0057121,
        "meta_mean_motion_dot": 0.00011476,
        "meta_mean_motion_ddot": 0,
        "tle_line1": "1 34689U 93036YK  25343.65536116  .00011476  00000+0  57121-2 0  9997",
        "tle_line2": "2 34689  74.0977 228.7634 0228770 298.3373  87.6678 14.04380278842989"
      },
      "geometry": {
        "type": "Point",
        "coordinates": [
          60.760188715444905,
          -39.666257685968596
        ]
      }
    },
    {
      "type": "Feature",
      "properties": {
        "norad_id": 34721,
        "name": "COSMOS 2251 DEB",
        "group": "cosmos-2251-debris",
        "lat": -44.09121203655905,
        "lon": -46.29510037232662,
        "alt_km": 792.9456028479844,
        "timestamp": "2025-12-10T14:53:37.482867+00:00",
        "meta_object_name": "COSMOS 2251 DEB",
        "meta_object_id": "1993-036YP",
        "meta_epoch": "2025-12-08T23:44:20.442336",
        "meta_mean_motion": 13.96821392,
        "meta_eccentricity": 0.02238657,
        "meta_inclination": 73.9235,
        "meta_ra_of_asc_node": 332.7561,
        "meta_arg_of_pericenter": 272.3834,
        "meta_mean_anomaly": 118.8256,
        "meta_ephemeris_type": 0,
        "meta_classification_type": "U",
        "meta_norad_cat_id": 34721,
        "meta_element_set_no": 999,
        "meta_rev_at_epoch": 85097,
        "meta_bstar": 0.0019617403,
        "meta_mean_motion_dot": 3.345e-05,
        "meta_mean_motion_ddot": 0,
        "tle_line1": "1 34721U 93036YP  25342.98912549  .00003345  00000+0  19617-2 0  9991",
        "tle_line2": "2 34721  73.9235 332.7561 0223865 272.3834 118.8256 13.96821392850974"
      },
      "geometry": {
        "type": "Point",
        "coordinates": [
          -46.29510037232662,
          -44.09121203655905
        ]
      }
    }
  ]
}